RADFXSAT (FOX-1B)       
1 43017U 17073E   25172.36317992  .00005702  00000+0  29053-3 0  9995
2 43017  97.5254  42.8381 0173863 126.1021 235.6445 15.04892979410981
DIWATA-2B               
1 43678U 18084H   25172.80949315  .00001131  00000+0  10021-3 0  9997
2 43678  98.1028 349.4012 0007698 245.3120 114.7300 14.98374557362211
ES'HAIL 2               
1 43700U 18090A   25172.57858656  .00000154  00000+0  00000+0 0  9997
2 43700   0.0139  53.4187 0002204  76.5447  14.1368  1.00272621 24064
FOX-1CLIFF (AO-95)      
1 43770U 18099N   25172.12358425  .00006625  00000+0  33415-3 0  9992
2 43770  97.4911 230.0818 0011284 164.5030 195.6551 15.17413866358304
ITASAT                  
1 43786U 18099AE  25172.11961399  .00004243  00000+0  24301-3 0  9996
2 43786  97.4559 226.2114 0015023 160.7804 199.3997 15.13057981358209
JY1SAT (JO-97)          
1 43803U 18099AX  25172.16355271  .00007810  00000+0  35417-3 0  9990
2 43803  97.4659 231.1370 0009176 104.8651 255.3601 15.21066681358537
UWE-4                   
1 43880U 18111E   25172.21190530  .00009280  00000+0  36091-3 0  9993
2 43880  97.5894  85.2612 0012519 160.4645 199.7075 15.26188712353409
DUCHIFAT-3              
1 44854U 19089C   25172.62854289  .00031496  00000+0  59544-3 0  9995
2 44854  36.9427 278.5325 0003480  49.7685 310.3376 15.47512017304816
TIANYAN 01              
1 44881U 19093C   25172.81827683  .00000632  00000+0  79012-4 0  9990
2 44881  97.7923 248.2123 0013639 185.4237 174.6833 14.85623337297897
RS-44 & BREEZE-KM R/B   
1 44909U 19096E   25172.59356635  .00000029  00000+0  79701-4 0  9998
2 44909  82.5205 219.2967 0216248 267.4855  90.1476 12.79741322256228
SALSAT                  
1 46495U 20068K   25172.83791835  .00005054  00000+0  21850-3 0  9997
2 46495  97.8602 151.4335 0012973 116.3185 243.9385 15.22886958260399
LEDSAT                  
1 49069U 21073D   25172.48215920  .00050303  00000+0  56862-3 0  9999
2 49069  97.3886 254.5298 0007940  40.9251 319.2602 15.62279269213296
XW-3 (CAS-9)            
1 50466U 21131B   25172.84431152  .00000376  00000+0  13118-3 0  9996
2 50466  98.5106 262.1372 0005458  99.5498 260.6307 14.40827806183210
GREENCUBE (IO-117)      
1 53109U 22080E   25171.01841591 -.00000003  00000+0  00000+0 0  9997
2 53109  70.1414  64.1899 0008698   7.4365 352.6423  6.42583728 68790
