[
  {
    "OBJECT_NAME": "RADFXSAT (FOX-1B)",
    "OBJECT_ID": "2017-073E",
    "EPOCH": "2025-06-21T08:42:58.745088",
    "MEAN_MOTION": 15.04892979,
    "ECCENTRICITY": 0.0173863,
    "INCLINATION": 97.5254,
    "RA_OF_ASC_NODE": 42.8381,
    "ARG_OF_PERICENTER": 126.1021,
    "MEAN_ANOMALY": 235.6445,
    "EPHEMERIS_TYPE": 0,
    "CLASSIFICATION_TYPE": "U",
    "NORAD_CAT_ID": 43017,
    "ELEMENT_SET_NO": 999,
    "REV_AT_EPOCH": 41098,
    "BSTAR": 0.00029053,
    "MEAN_MOTION_DOT": 5.702e-05,
    "MEAN_MOTION_DDOT": 0
  },
  {
    "OBJECT_NAME": "DIWATA-2B",
    "OBJECT_ID": "2018-084H",
    "EPOCH": "2025-06-21T19:25:40.208160",
    "MEAN_MOTION": 14.98374557,
    "ECCENTRICITY": 0.0007698,
    "INCLINATION": 98.1028,
    "RA_OF_ASC_NODE": 349.4012,
    "ARG_OF_PERICENTER": 245.312,
    "MEAN_ANOMALY": 114.73,
    "EPHEMERIS_TYPE": 0,
    "CLASSIFICATION_TYPE": "U",
    "NORAD_CAT_ID": 43678,
    "ELEMENT_SET_NO": 999,
    "REV_AT_EPOCH": 36221,
    "BSTAR": 0.00010021,
    "MEAN_MOTION_DOT": 1.131e-05,
    "MEAN_MOTION_DDOT": 0
  },
  {
    "OBJECT_NAME": "ES'HAIL 2",
    "OBJECT_ID": "2018-090A",
    "EPOCH": "2025-06-21T13:53:09.878784",
    "MEAN_MOTION": 1.00272621,
    "ECCENTRICITY": 0.0002204,
    "INCLINATION": 0.0139,
    "RA_OF_ASC_NODE": 53.4187,
    "ARG_OF_PERICENTER": 76.5447,
    "MEAN_ANOMALY": 14.1368,
    "EPHEMERIS_TYPE": 0,
    "CLASSIFICATION_TYPE": "U",
    "NORAD_CAT_ID": 43700,
    "ELEMENT_SET_NO": 999,
    "REV_AT_EPOCH": 2406,
    "BSTAR": 0,
    "MEAN_MOTION_DOT": 1.54e-06,
    "MEAN_MOTION_DDOT": 0
  },
  {
    "OBJECT_NAME": "FOX-1CLIFF (AO-95)",
    "OBJECT_ID": "2018-099N",
    "EPOCH": "2025-06-21T02:57:57.679200",
    "MEAN_MOTION": 15.17413866,
    "ECCENTRICITY": 0.0011284,
    "INCLINATION": 97.4911,
    "RA_OF_ASC_NODE": 230.0818,
    "ARG_OF_PERICENTER": 164.503,
    "MEAN_ANOMALY": 195.6551,
    "EPHEMERIS_TYPE": 0,
    "CLASSIFICATION_TYPE": "U",
    "NORAD_CAT_ID": 43770,
    "ELEMENT_SET_NO": 999,
    "REV_AT_EPOCH": 35830,
    "BSTAR": 0.00033415,
    "MEAN_MOTION_DOT": 6.625e-05,
    "MEAN_MOTION_DDOT": 0
  },
  {
    "OBJECT_NAME": "ITASAT",
    "OBJECT_ID": "2018-099AE",
    "EPOCH": "2025-06-21T02:52:14.648736",
    "MEAN_MOTION": 15.13057981,
    "ECCENTRICITY": 0.0015023,
    "INCLINATION": 97.4559,
    "RA_OF_ASC_NODE": 226.2114,
    "ARG_OF_PERICENTER": 160.7804,
    "MEAN_ANOMALY": 199.3997,
    "EPHEMERIS_TYPE": 0,
    "CLASSIFICATION_TYPE": "U",
    "NORAD_CAT_ID": 43786,
    "ELEMENT_SET_NO": 999,
    "REV_AT_EPOCH": 35820,
    "BSTAR": 0.00024301,
    "MEAN_MOTION_DOT": 4.243e-05,
    "MEAN_MOTION_DDOT": 0
  },
  {
    "OBJECT_NAME": "JY1SAT (JO-97)",
    "OBJECT_ID": "2018-099AX",
    "EPOCH": "2025-06-21T03:55:30.954144",
    "MEAN_MOTION": 15.21066681,
    "ECCENTRICITY": 0.0009176,
    "INCLINATION": 97.4659,
    "RA_OF_ASC_NODE": 231.137,
    "ARG_OF_PERICENTER": 104.8651,
    "MEAN_ANOMALY": 255.3601,
    "EPHEMERIS_TYPE": 0,
    "CLASSIFICATION_TYPE": "U",
    "NORAD_CAT_ID": 43803,
    "ELEMENT_SET_NO": 999,
    "REV_AT_EPOCH": 35853,
    "BSTAR": 0.00035417,
    "MEAN_MOTION_DOT": 7.81e-05,
    "MEAN_MOTION_DDOT": 0
  },
  {
    "OBJECT_NAME": "UWE-4",
    "OBJECT_ID": "2018-111E",
    "EPOCH": "2025-06-21T05:05:08.617920",
    "MEAN_MOTION": 15.26188712,
    "ECCENTRICITY": 0.0012519,
    "INCLINATION": 97.5894,
    "RA_OF_ASC_NODE": 85.2612,
    "ARG_OF_PERICENTER": 160.4645,
    "MEAN_ANOMALY": 199.7075,
    "EPHEMERIS_TYPE": 0,
    "CLASSIFICATION_TYPE": "U",
    "NORAD_CAT_ID": 43880,
    "ELEMENT_SET_NO": 999,
    "REV_AT_EPOCH": 35340,
    "BSTAR": 0.00036091,
    "MEAN_MOTION_DOT": 9.28e-05,
    "MEAN_MOTION_DDOT": 0
  },
  {
    "OBJECT_NAME": "DUCHIFAT-3",
    "OBJECT_ID": "2019-089C",
    "EPOCH": "2025-06-21T15:05:06.105696",
    "MEAN_MOTION": 15.47512017,
    "ECCENTRICITY": 0.000348,
    "INCLINATION": 36.9427,
    "RA_OF_ASC_NODE": 278.5325,
    "ARG_OF_PERICENTER": 49.7685,
    "MEAN_ANOMALY": 310.3376,
    "EPHEMERIS_TYPE": 0,
    "CLASSIFICATION_TYPE": "U",
    "NORAD_CAT_ID": 44854,
    "ELEMENT_SET_NO": 999,
    "REV_AT_EPOCH": 30481,
    "BSTAR": 0.00059544,
    "MEAN_MOTION_DOT": 0.00031496,
    "MEAN_MOTION_DDOT": 0
  },
  {
    "OBJECT_NAME": "TIANYAN 01",
    "OBJECT_ID": "2019-093C",
    "EPOCH": "2025-06-21T19:38:19.118112",
    "MEAN_MOTION": 14.85623337,
    "ECCENTRICITY": 0.0013639,
    "INCLINATION": 97.7923,
    "RA_OF_ASC_NODE": 248.2123,
    "ARG_OF_PERICENTER": 185.4237,
    "MEAN_ANOMALY": 174.6833,
    "EPHEMERIS_TYPE": 0,
    "CLASSIFICATION_TYPE": "U",
    "NORAD_CAT_ID": 44881,
    "ELEMENT_SET_NO": 999,
    "REV_AT_EPOCH": 29789,
    "BSTAR": 7.9012e-05,
    "MEAN_MOTION_DOT": 6.32e-06,
    "MEAN_MOTION_DDOT": 0
  },
  {
    "OBJECT_NAME": "RS-44 & BREEZE-KM R/B",
    "OBJECT_ID": "2019-096E",
    "EPOCH": "2025-06-21T14:14:44.132640",
    "MEAN_MOTION": 12.79741322,
    "ECCENTRICITY": 0.0216248,
    "INCLINATION": 82.5205,
    "RA_OF_ASC_NODE": 219.2967,
    "ARG_OF_PERICENTER": 267.4855,
    "MEAN_ANOMALY": 90.1476,
    "EPHEMERIS_TYPE": 0,
    "CLASSIFICATION_TYPE": "U",
    "NORAD_CAT_ID": 44909,
    "ELEMENT_SET_NO": 999,
    "REV_AT_EPOCH": 25622,
    "BSTAR": 7.9701e-05,
    "MEAN_MOTION_DOT": 2.9e-07,
    "MEAN_MOTION_DDOT": 0
  },
  {
    "OBJECT_NAME": "SALSAT",
    "OBJECT_ID": "2020-068K",
    "EPOCH": "2025-06-21T20:06:36.145440",
    "MEAN_MOTION": 15.22886958,
    "ECCENTRICITY": 0.0012973,
    "INCLINATION": 97.8602,
    "RA_OF_ASC_NODE": 151.4335,
    "ARG_OF_PERICENTER": 116.3185,
    "MEAN_ANOMALY": 243.9385,
    "EPHEMERIS_TYPE": 0,
    "CLASSIFICATION_TYPE": "U",
    "NORAD_CAT_ID": 46495,
    "ELEMENT_SET_NO": 999,
    "REV_AT_EPOCH": 26039,
    "BSTAR": 0.0002185,
    "MEAN_MOTION_DOT": 5.054e-05,
    "MEAN_MOTION_DDOT": 0
  },
  {
    "OBJECT_NAME": "LEDSAT",
    "OBJECT_ID": "2021-073D",
    "EPOCH": "2025-06-21T11:34:18.554880",
    "MEAN_MOTION": 15.62279269,
    "ECCENTRICITY": 0.000794,
    "INCLINATION": 97.3886,
    "RA_OF_ASC_NODE": 254.5298,
    "ARG_OF_PERICENTER": 40.9251,
    "MEAN_ANOMALY": 319.2602,
    "EPHEMERIS_TYPE": 0,
    "CLASSIFICATION_TYPE": "U",
    "NORAD_CAT_ID": 49069,
    "ELEMENT_SET_NO": 999,
    "REV_AT_EPOCH": 21329,
    "BSTAR": 0.00056862,
    "MEAN_MOTION_DOT": 0.00050303,
    "MEAN_MOTION_DDOT": 0
  },
  {
    "OBJECT_NAME": "XW-3 (CAS-9)",
    "OBJECT_ID": "2021-131B",
    "EPOCH": "2025-06-21T20:15:48.515328",
    "MEAN_MOTION": 14.40827806,
    "ECCENTRICITY": 0.0005458,
    "INCLINATION": 98.5106,
    "RA_OF_ASC_NODE": 262.1372,
    "ARG_OF_PERICENTER": 99.5498,
    "MEAN_ANOMALY": 260.6307,
    "EPHEMERIS_TYPE": 0,
    "CLASSIFICATION_TYPE": "U",
    "NORAD_CAT_ID": 50466,
    "ELEMENT_SET_NO": 999,
    "REV_AT_EPOCH": 18321,
    "BSTAR": 0.00013118,
    "MEAN_MOTION_DOT": 3.76e-06,
    "MEAN_MOTION_DDOT": 0
  },
  {
    "OBJECT_NAME": "GREENCUBE (IO-117)",
    "OBJECT_ID": "2022-080E",
    "EPOCH": "2025-06-20T00:26:31.134624",
    "MEAN_MOTION": 6.42583728,
    "ECCENTRICITY": 0.0008698,
    "INCLINATION": 70.1414,
    "RA_OF_ASC_NODE": 64.1899,
    "ARG_OF_PERICENTER": 7.4365,
    "MEAN_ANOMALY": 352.6423,
    "EPHEMERIS_TYPE": 0,
    "CLASSIFICATION_TYPE": "U",
    "NORAD_CAT_ID": 53109,
    "ELEMENT_SET_NO": 999,
    "REV_AT_EPOCH": 6879,
    "BSTAR": 0,
    "MEAN_MOTION_DOT": -3e-08,
    "MEAN_MOTION_DDOT": 0
  }
]